#aV2006  4 17  0  0   .00000000      96 DD+AD WGS84 FIT  NGA
## 1371  86400.00000000   900.00000000 53842  .0000000000000
+   29     1  2  3  4  5  6  7  8  9 10 11 13 14 15 16 17 18
+         19 20 21 22 23 24 25 26 27 28 29 30  0  0  0  0  0
+          0  0  0  0  0  0  0  0  0  0  0  0  0  0  0  0  0
+          0  0  0  0  0  0  0  0  0  0  0  0  0  0  0  0  0
+          0  0  0  0  0  0  0  0  0  0  0  0  0  0  0  0  0
++         0  0  0  0  0  0  0  0  0  0  0  0  0  0  0  0  0
++         0  0  0  0  0  0  0  0  0  0  0  0  0  0  0  0  0
++         0  0  0  0  0  0  0  0  0  0  0  0  0  0  0  0  0
++         0  0  0  0  0  0  0  0  0  0  0  0  0  0  0  0  0
++         0  0  0  0  0  0  0  0  0  0  0  0  0  0  0  0  0
%c cc cc ccc ccc cccc cccc cccc cccc ccccc ccccc ccccc ccccc
%c cc cc ccc ccc cccc cccc cccc cccc ccccc ccccc ccccc ccccc
%f  0.0000000  0.000000000  0.00000000000  0.000000000000000
%f  0.0000000  0.000000000  0.00000000000  0.000000000000000
%i    0    0    0    0      0      0      0      0         0
%i    0    0    0    0      0      0      0      0         0
/*      NGA, ST. LOUIS,MO.                                  
/*   EPHEMERIS COMPUTED FROM  3 DAYS OF DATA                
/* CCCCCCCCCCCCCCCCCCCCCCCCCCCCCCCCCCCCCCCCCCCCCCCCCCCCCCCCC
/* CCCCCCCCCCCCCCCCCCCCCCCCCCCCCCCCCCCCCCCCCCCCCCCCCCCCCCCCC
*  2006  4 17 20 30   .00000000                                                 
P  1 -19593.628692 -13172.235290 -12015.589606     47.622955                    
V  1  -7876.751135 -13462.517122  27120.312752       .020691                    
P  2  15584.717859   2494.268973 -21613.328256     -8.498235                    
V  2  -9283.731954  25220.873817  -4023.623790       .022520                    
P  3 -21374.359253  -6700.203309  14335.615784     91.247653                    
V  3 -10836.225421 -15183.468502 -22687.212432       .032852                    
P  4  10372.738438  13281.887166 -20482.930818    207.579680                    
V  4 -10973.664784  23658.900616  10148.688186       .100032                    
P  5  19051.261243 -13826.569593 -12329.816195   -144.783813                    
V  5  15740.365209   -672.842204  25645.244570       .646128                    
P  6   -226.805567 -19949.590167 -17306.273139    477.597704                    
V  6  16286.578665  15629.272271 -18107.288848       .225100                    
P  7 -16790.932634 -20399.972350  -1611.127827    529.081833                    
V  7   4408.468967   -681.210010 -31186.348931       .041139                    
P  8   3163.974634  20449.098126  16272.012667    -62.887003                    
V  8 -10208.420951  18528.500855 -21505.627555      -.012935                    
P  9  14691.433326 -18613.497076  11122.113457     16.494454                    
V  9  -2280.211653  15141.828920  27331.405709       .016457                    
P 10  26466.345895   -902.543213  -3733.643644     81.940830                    
V 10  -4265.216875   2665.742233 -31380.145522       .006832                    
P 11 -13445.594139  20028.842795  10773.114177    321.204638                    
V 11  -1015.386337 -14620.570935  26003.458527       .025736                    
P 13   1571.151437  20421.670147 -17024.859990     55.281278                    
V 13 -13839.508186 -16319.986906 -20895.831966       .027331                    
P 14 -15534.779056 -21523.361947   1558.093678    -15.759644                    
V 14   2713.883543    276.119810  32194.043609       .007306                    
P 15  -2585.268600 -20716.238660  16019.512716    598.251721                    
V 15  11031.997853 -17796.027626 -21405.075719       .061907                    
P 16 -24679.528269  -3057.305374  -9383.150447     37.394300                    
V 16  11534.354084  -4143.546781 -28618.461439       .022367                    
P 17  14985.571221  21813.241060   2767.820083     83.564762                    
V 17  -4330.285622  -1045.301388  31434.711520       .044110                    
P 18   2391.744474 -15470.947901  21519.993624   -231.261125                    
V 18  27051.427249  -2346.109845  -5008.281935      -.017849                    
P 19 -15423.223588   4132.850004  21334.754738    -14.825327                    
V 19 -15038.904155 -22247.111959  -6554.278272       .015868                    
P 20 -18629.858837  12922.825633 -13901.004397    -28.446250                    
V 20 -17648.457454    586.799360  24393.244029       .007007                    
P 21   3738.781756 -24527.907005   8763.595013     22.172572                    
V 21   7669.054911  -8927.830855 -28939.240917       .028834                    
P 22 -12605.514513 -12760.075055  19742.547357     86.543201                    
V 22  24511.053225  -3675.474684  13373.237746       .039159                    
P 23  -9111.467396  12470.215748 -21682.834461    143.781016                    
V 23 -17461.146212 -21004.520972  -4916.109255      -.010409                    
P 24     17.481735  22699.849542 -13344.529279    101.499467                    
V 24  -9413.318312  14881.117524  25116.683287       .028662                    
P 25 -12880.543250  -9081.511713 -20961.013632     11.765641                    
V 25   8293.012360 -26337.386334   6321.579428       .041095                    
P 26  16969.246193    402.149735  20211.311215    -89.423816                    
V 26  15478.358063  21246.395939 -12597.774981      -.106354                    
P 27  -1941.842950  25157.108746   8313.442640     44.761364                    
V 27  -5726.300374   8498.411201 -29505.080762       .016888                    
P 28   9269.280036  13689.413040  21138.152537     29.277400                    
V 28 -25814.145542   4034.303135   8484.141156      -.008144                    
P 29  18731.303330   3172.590026  18915.905526    587.490923                    
V 29  14118.916763  18627.624011 -17059.574578       .081569                    
P 30   9279.480965 -15984.492213 -19312.435832    155.828042                    
V 30  23892.093110  -2977.142776  14264.080463       .483912                    
EOF
